SPACEMOBILE-003         
1 61045U 24163A   26195.16180117  .00000532  00000+0  38587-4 0  9994
2 61045  52.9668 185.3958 0004800 190.5328 169.5566 15.20702085101878
SPACEMOBILE-005         
1 61046U 24163B   26194.09371225  .00000320  00000+0  29081-4 0  9992
2 61046  52.9757 190.2542 0008516 188.4778 171.6074 15.20746160101707
SPACEMOBILE-001         
1 61047U 24163C   26192.44911905  .00000309  00000+0  28551-4 0  9993
2 61047  52.9736 197.5273 0007475 183.3179 176.7767 15.20792937101458
SPACEMOBILE-002         
1 61048U 24163D   26195.12751280  .00008581  00000+0  39857-3 0  9990
2 61048  52.9768 185.2488 0006347 186.0416 174.0502 15.20784147101864
SPACEMOBILE-004         
1 61049U 24163E   26193.40140888  .00012717  00000+0  58302-3 0  9998
2 61049  52.9682 192.9673 0006853 216.7757 143.2768 15.20795560101607
SPACEMOBILE-001 DEB     
1 62369U 24163F   26195.13760972  .00005327  00000+0  16363-3 0  9998
2 62369  52.9929 152.4942 0005744 249.0917 110.9469 15.35376925 90648
SPACEMOBILE-002 DEB     
1 62370U 24163G   26195.12044398  .00012852  00000+0  28811-3 0  9998
2 62370  52.9418 136.7687 0004543 281.7902  78.2592 15.43792576102524
SPACEMOBILE-003 DEB     
1 62371U 24163H   26195.15275769  .00011638  00000+0  28213-3 0  9997
2 62371  52.9689 143.4971 0005447 232.9344 127.1161 15.41538032 96046
SPACEMOBILE-004 DEB     
1 62372U 24163J   26195.17080316  .00008276  00000+0  20887-3 0  9995
2 62372  52.9838 143.0576 0002686 260.3679  99.7021 15.40746552 99115
SPACEMOBILE-005 DEB     
1 62373U 24163K   26195.15935802  .00006091  00000+0  18979-3 0  9995
2 62373  52.9735 157.2883 0005672 225.9980 134.0553 15.34646364102267
SPACEMOBILE-006         
1 67232U 25309A   26195.02627466  .00000488  00000+0  38590-4 0  9993
2 67232  52.9935 208.6897 0010252 211.3780 148.6603 15.18651444 30670
SPACEMOBILE-008         
1 69589U 26139A   26195.16185102 -.00000107  00000+0  10933-4 0  9993
2 69589  52.9946 140.0988 0005033  54.0321 306.1136 15.12801197  4065
SPACEMOBILE-009         
1 69590U 26139B   26195.16374056 -.00000070  00000+0  13084-4 0  9992
2 69590  52.9938 140.1052 0005276  49.9484 310.1969 15.12694533  4066
SPACEMOBILE-010         
1 69591U 26139C   26195.16673917  .00000048  00000+0  19806-4 0  9993
2 69591  52.9945 140.1266 0005195  41.7586 318.3801 15.12526359  4071
